#aV2009  6 15  0  0   .00000000      96 DD+AD WGS84 FIT  NGA
## 1536  86400.00000000   900.00000000 54997  .0000000000000
+   31     1  2  3  4  6  7  8  9 10 11 12 13 14 15 16 17 18
+         19 20 21 22 23 24 25 26 27 28 29 30 31 32  0  0  0
+          0  0  0  0  0  0  0  0  0  0  0  0  0  0  0  0  0
+          0  0  0  0  0  0  0  0  0  0  0  0  0  0  0  0  0
+          0  0  0  0  0  0  0  0  0  0  0  0  0  0  0  0  0
++         0  0  0  0  0  0  0  0  0  0  0  0  0  0  0  0  0
++         0  0  0  0  0  0  0  0  0  0  0  0  0  0  0  0  0
++         0  0  0  0  0  0  0  0  0  0  0  0  0  0  0  0  0
++         0  0  0  0  0  0  0  0  0  0  0  0  0  0  0  0  0
++         0  0  0  0  0  0  0  0  0  0  0  0  0  0  0  0  0
%c cc cc ccc ccc cccc cccc cccc cccc ccccc ccccc ccccc ccccc
%c cc cc ccc ccc cccc cccc cccc cccc ccccc ccccc ccccc ccccc
%f  0.0000000  0.000000000  0.00000000000  0.000000000000000
%f  0.0000000  0.000000000  0.00000000000  0.000000000000000
%i    0    0    0    0      0      0      0      0         0
%i    0    0    0    0      0      0      0      0         0
/*      NGA, ST. LOUIS,MO.                                  
/*   EPHEMERIS COMPUTED FROM  3 DAYS OF DATA                
/* CCCCCCCCCCCCCCCCCCCCCCCCCCCCCCCCCCCCCCCCCCCCCCCCCCCCCCCCC
/* CCCCCCCCCCCCCCCCCCCCCCCCCCCCCCCCCCCCCCCCCCCCCCCCCCCCCCCCC
*  2009  6 15 22 30   .00000000                                                 
P  1  15452.303924  19482.643325  -9569.315015    -77.130612                    
V  1 -11124.480471  -5088.401423 -28487.059070       .055258                    
P  2 -22708.050112  12902.655296   3274.232699    156.506375                    
V  2  -5497.907589  -1651.051916 -31211.841055       .011249                    
P  3  10413.383991 -19666.720169  13919.239504    407.160169                    
V  3   3319.737188  18428.101566  23396.648510       .050717                    
P  4 -25206.714838   4703.733380  -7750.544683   -134.491386                    
V  4   7660.832450  -6469.907780 -28981.384899      -.158752                    
P  6  13658.031541 -15263.518939  17068.561766    162.158111                    
V  6    814.430808  21515.566968  18866.576062       .131433                    
P  7 -11693.883593 -10851.808295  21232.350749     16.993099                    
V  7  24491.936534 -11306.093812   7580.174174      -.007098                    
P  8 -22380.567597  -1974.893290  14506.000945   -207.805675                    
V  8  16755.325662  -7338.341816  24277.031761      -.015334                    
P  9  -6423.360566  17616.676957 -19436.088001     61.395770                    
V  9 -21454.005999   9098.263534  15970.151303       .020219                    
P 10 -12689.405213   9137.335153  21341.742095    -17.560265                    
V 10 -21494.203984 -17081.161243  -5097.338297      -.005035                    
P 11   2330.769877 -19573.555190 -17862.402212     -6.635382                    
V 11  19966.339518 -11123.839028  15327.816498      -.015171                    
P 12   5735.179709  19227.111019 -17398.336420   -265.800076                    
V 12 -18681.344080 -12017.440822 -19242.073303       .058196                    
P 13  -6807.997513 -20285.864714  15600.817746    299.485359                    
V 13   4633.413848 -19483.700930 -23122.051482       .008163                    
P 14  14146.889155   3673.529751 -22061.506370    -94.296240                    
V 14  -4278.706431  27893.481509   1774.597035       .058104                    
P 15  -7559.489193  24357.565727   7321.376675   -301.224529                    
V 15  -1929.881174  -9522.185103  29832.697137      -.031488                    
P 16  16650.703701  -4736.296843  20267.431287     41.640645                    
V 16  19676.816460  16268.032757 -12160.842722      -.034652                    
P 17 -14569.537832  -5125.909918 -21551.876973     64.689033                    
V 17   3798.160520 -27260.036581   3714.952735       .022032                    
P 18  20214.481165  17477.340782   1794.051443    -47.920609                    
V 18  -3446.935275   1179.274436  30988.310786       .032225                    
P 19   8128.064215 -24670.540519   4902.546528     22.371291                    
V 19   1881.764139   6655.260801  31015.819932      -.012870                    
P 20  -7411.754308 -19694.701547 -16353.603401     79.829927                    
V 20  18098.525314  10017.384988 -20385.477280      -.010080                    
P 21  15578.832636   9391.935286  19806.892358      8.157072                    
V 21 -22211.462893  10391.435852  12078.946576      -.021477                    
P 22  22966.874987   9958.035747  -8833.454075    197.410439                    
V 22   7022.922095   9568.430198  28458.002885      -.006867                    
P 23   -160.828940 -25979.014137   4665.223351    390.215885                    
V 23   3402.445618  -5669.809156 -31411.981641       .000026                    
P 24    557.891950  16062.101356  21311.334138    197.092500                    
V 24 -25190.641275   9019.968568  -5924.397899       .029485                    
P 25  -4234.662083 -14862.686676  21960.124669    464.186672                    
V 25  23742.384744 -12907.425443  -4033.194576       .178810                    
P 26   2660.326741  24326.645048 -10221.907103     63.704791                    
V 26  -3875.546734  11813.903293  29148.058356       .006688                    
P 27 -13854.468544  17484.470071 -13744.118786     57.824586                    
V 27 -17498.872963   6587.756159  24789.162696       .032312                    
P 28 -22733.651585 -12339.000155  -6282.611170    -25.484864                    
V 28  -5220.547289  -7064.503537  30348.493282      -.001776                    
P 29   6851.505485  21653.962758  13911.094946     30.506905                    
V 29  -4510.083686  17014.979860 -24410.624876       .036796                    
P 30  15492.341936  19226.877158 -10262.763798    153.961767                    
V 30 -11792.580151  -4838.683105 -27795.439497       .028425                    
P 31  25079.606153  -6821.338690  -5624.410263    -62.351007                    
V 31  -5836.425953   5033.645822 -30864.010878      -.006308                    
P 32   1841.591751 -16913.776564 -20066.771344    246.579320                    
V 32  20393.573218  16615.037615 -11650.878525      -.056122                    
EOF
